SL-16 R/B               
1 24298U 96051B   25308.45707605 -.00000091  00000+0 -22641-4 0  9998
2 24298  70.7590  80.3112 0017578 310.1672  49.7907 14.12392231503965
ORBVIEW 2 (SEASTAR)     
1 24883U 97037A   25308.43710662  .00000344  00000+0  13611-3 0  9993
2 24883  98.8444 104.5530 0003213  77.4016 282.7528 14.35371419490506
SL-16 R/B               
1 25400U 98043G   25308.41817888  .00000094  00000+0  58204-4 0  9993
2 25400  98.8058 256.0346 0010309  23.7749 336.3905 14.26010556421132
SL-16 R/B               
1 25407U 98045B   25308.48104362  .00000207  00000+0  12884-3 0  9994
2 25407  71.0103  84.8797 0008958 228.2343 131.8015 14.16167499409379
ISS (ZARYA)             
1 25544U 98067A   25308.35786713  .00010709  00000+0  19707-3 0  9991
2 25544  51.6336 332.4903 0005031  16.0382 344.0765 15.49743270536903
CZ-4B R/B               
1 25732U 99025C   25308.36005852  .00000091  00000+0  64945-4 0  9992
2 25732  98.6829 350.4873 0036798 347.0862  22.8827 14.18228764370402
OKEAN-O                 
1 25860U 99039A   25308.39077955  .00000880  00000+0  12305-3 0  9993
2 25860  97.9660   4.4150 0001689  73.1967 286.9429 14.80061183415856
SL-16 R/B               
1 25861U 99039B   25308.42290897  .00000694  00000+0  95323-4 0  9995
2 25861  98.0183   2.5614 0013713 307.1673  52.8287 14.81500949418313
DELTA 2 R/B             
1 25876U 99041E   25308.11843151  .00000960  00000+0  19356-3 0  9994
2 25876  51.7634  82.5943 0504730 337.9496  20.0390 14.11262397345290
HELIOS 1B               
1 25977U 99064A   25308.45218259  .00002268  00000+0  25946-3 0  9998
2 25977  98.1760 201.9880 0002518  95.0718 265.0785 14.87038586666648
TERRA                   
1 25994U 99068A   25308.46016522  .00000590  00000+0  12980-3 0  9991
2 25994  97.9805   1.5374 0001789 184.0627 303.3321 14.60883277376795
SL-16 R/B               
1 26070U 00006B   25308.46403235  .00000251  00000+0  15159-3 0  9997
2 26070  71.0042   1.1384 0016317   4.0545 356.0707 14.15800098330835
