CCSDS_OMM_VERS = 2.0
CREATION_DATE  = 
ORIGINATOR     = 

OBJECT_NAME    = SL-16 R/B
OBJECT_ID      = 1996-051B
CENTER_NAME    = EARTH
REF_FRAME      = TEME
TIME_SYSTEM    = UTC
MEAN_ELEMENT_THEORY = SGP/SGP4

EPOCH          = 2025-11-04T10:58:11.370720
MEAN_MOTION    = 14.12392231
ECCENTRICITY   = .0017578
INCLINATION    = 70.7590
RA_OF_ASC_NODE = 80.3112
ARG_OF_PERICENTER = 310.1672
MEAN_ANOMALY   = 49.7907

EPHEMERIS_TYPE = 0
CLASSIFICATION_TYPE = U
NORAD_CAT_ID   = 24298
ELEMENT_SET_NO = 999
REV_AT_EPOCH   = 50396
BSTAR          = -.22641E-4
MEAN_MOTION_DOT = -.91E-6
MEAN_MOTION_DDOT = 0

CCSDS_OMM_VERS = 2.0
CREATION_DATE  = 
ORIGINATOR     = 

OBJECT_NAME    = ORBVIEW 2 (SEASTAR)
OBJECT_ID      = 1997-037A
CENTER_NAME    = EARTH
REF_FRAME      = TEME
TIME_SYSTEM    = UTC
MEAN_ELEMENT_THEORY = SGP/SGP4

EPOCH          = 2025-11-04T10:29:26.011968
MEAN_MOTION    = 14.35371419
ECCENTRICITY   = .0003213
INCLINATION    = 98.8444
RA_OF_ASC_NODE = 104.5530
ARG_OF_PERICENTER = 77.4016
MEAN_ANOMALY   = 282.7528

EPHEMERIS_TYPE = 0
CLASSIFICATION_TYPE = U
NORAD_CAT_ID   = 24883
ELEMENT_SET_NO = 999
REV_AT_EPOCH   = 49050
BSTAR          = .13611E-3
MEAN_MOTION_DOT = .344E-5
MEAN_MOTION_DDOT = 0

CCSDS_OMM_VERS = 2.0
CREATION_DATE  = 
ORIGINATOR     = 

OBJECT_NAME    = SL-16 R/B
OBJECT_ID      = 1998-043G
CENTER_NAME    = EARTH
REF_FRAME      = TEME
TIME_SYSTEM    = UTC
MEAN_ELEMENT_THEORY = SGP/SGP4

EPOCH          = 2025-11-04T10:02:10.655232
MEAN_MOTION    = 14.26010556
ECCENTRICITY   = .0010309
INCLINATION    = 98.8058
RA_OF_ASC_NODE = 256.0346
ARG_OF_PERICENTER = 23.7749
MEAN_ANOMALY   = 336.3905

EPHEMERIS_TYPE = 0
CLASSIFICATION_TYPE = U
NORAD_CAT_ID   = 25400
ELEMENT_SET_NO = 999
REV_AT_EPOCH   = 42113
BSTAR          = .58204E-4
MEAN_MOTION_DOT = .94E-6
MEAN_MOTION_DDOT = 0

CCSDS_OMM_VERS = 2.0
CREATION_DATE  = 
ORIGINATOR     = 

OBJECT_NAME    = SL-16 R/B
OBJECT_ID      = 1998-045B
CENTER_NAME    = EARTH
REF_FRAME      = TEME
TIME_SYSTEM    = UTC
MEAN_ELEMENT_THEORY = SGP/SGP4

EPOCH          = 2025-11-04T11:32:42.168768
MEAN_MOTION    = 14.16167499
ECCENTRICITY   = .0008958
INCLINATION    = 71.0103
RA_OF_ASC_NODE = 84.8797
ARG_OF_PERICENTER = 228.2343
MEAN_ANOMALY   = 131.8015

EPHEMERIS_TYPE = 0
CLASSIFICATION_TYPE = U
NORAD_CAT_ID   = 25407
ELEMENT_SET_NO = 999
REV_AT_EPOCH   = 40937
BSTAR          = .12884E-3
MEAN_MOTION_DOT = .207E-5
MEAN_MOTION_DDOT = 0

CCSDS_OMM_VERS = 2.0
CREATION_DATE  = 
ORIGINATOR     = 

OBJECT_NAME    = ISS (ZARYA)
OBJECT_ID      = 1998-067A
CENTER_NAME    = EARTH
REF_FRAME      = TEME
TIME_SYSTEM    = UTC
MEAN_ELEMENT_THEORY = SGP/SGP4

EPOCH          = 2025-11-04T08:35:19.720032
MEAN_MOTION    = 15.49743270
ECCENTRICITY   = .0005031
INCLINATION    = 51.6336
RA_OF_ASC_NODE = 332.4903
ARG_OF_PERICENTER = 16.0382
MEAN_ANOMALY   = 344.0765

EPHEMERIS_TYPE = 0
CLASSIFICATION_TYPE = U
NORAD_CAT_ID   = 25544
ELEMENT_SET_NO = 999
REV_AT_EPOCH   = 53690
BSTAR          = .19707E-3
MEAN_MOTION_DOT = .10709E-3
MEAN_MOTION_DDOT = 0

CCSDS_OMM_VERS = 2.0
CREATION_DATE  = 
ORIGINATOR     = 

OBJECT_NAME    = CZ-4B R/B
OBJECT_ID      = 1999-025C
CENTER_NAME    = EARTH
REF_FRAME      = TEME
TIME_SYSTEM    = UTC
MEAN_ELEMENT_THEORY = SGP/SGP4

EPOCH          = 2025-11-04T08:38:29.056128
MEAN_MOTION    = 14.18228764
ECCENTRICITY   = .0036798
INCLINATION    = 98.6829
RA_OF_ASC_NODE = 350.4873
ARG_OF_PERICENTER = 347.0862
MEAN_ANOMALY   = 22.8827

EPHEMERIS_TYPE = 0
CLASSIFICATION_TYPE = U
NORAD_CAT_ID   = 25732
ELEMENT_SET_NO = 999
REV_AT_EPOCH   = 37040
BSTAR          = .64945E-4
MEAN_MOTION_DOT = .91E-6
MEAN_MOTION_DDOT = 0

CCSDS_OMM_VERS = 2.0
CREATION_DATE  = 
ORIGINATOR     = 

OBJECT_NAME    = OKEAN-O
OBJECT_ID      = 1999-039A
CENTER_NAME    = EARTH
REF_FRAME      = TEME
TIME_SYSTEM    = UTC
MEAN_ELEMENT_THEORY = SGP/SGP4

EPOCH          = 2025-11-04T09:22:43.353120
MEAN_MOTION    = 14.80061183
ECCENTRICITY   = .0001689
INCLINATION    = 97.9660
RA_OF_ASC_NODE = 4.4150
ARG_OF_PERICENTER = 73.1967
MEAN_ANOMALY   = 286.9429

EPHEMERIS_TYPE = 0
CLASSIFICATION_TYPE = U
NORAD_CAT_ID   = 25860
ELEMENT_SET_NO = 999
REV_AT_EPOCH   = 41585
BSTAR          = .12305E-3
MEAN_MOTION_DOT = .88E-5
MEAN_MOTION_DDOT = 0

CCSDS_OMM_VERS = 2.0
CREATION_DATE  = 
ORIGINATOR     = 

OBJECT_NAME    = SL-16 R/B
OBJECT_ID      = 1999-039B
CENTER_NAME    = EARTH
REF_FRAME      = TEME
TIME_SYSTEM    = UTC
MEAN_ELEMENT_THEORY = SGP/SGP4

EPOCH          = 2025-11-04T10:08:59.335008
MEAN_MOTION    = 14.81500949
ECCENTRICITY   = .0013713
INCLINATION    = 98.0183
RA_OF_ASC_NODE = 2.5614
ARG_OF_PERICENTER = 307.1673
MEAN_ANOMALY   = 52.8287

EPHEMERIS_TYPE = 0
CLASSIFICATION_TYPE = U
NORAD_CAT_ID   = 25861
ELEMENT_SET_NO = 999
REV_AT_EPOCH   = 41831
BSTAR          = .95323E-4
MEAN_MOTION_DOT = .694E-5
MEAN_MOTION_DDOT = 0

CCSDS_OMM_VERS = 2.0
CREATION_DATE  = 
ORIGINATOR     = 

OBJECT_NAME    = DELTA 2 R/B
OBJECT_ID      = 1999-041E
CENTER_NAME    = EARTH
REF_FRAME      = TEME
TIME_SYSTEM    = UTC
MEAN_ELEMENT_THEORY = SGP/SGP4

EPOCH          = 2025-11-04T02:50:32.482464
MEAN_MOTION    = 14.11262397
ECCENTRICITY   = .05047302
INCLINATION    = 51.7634
RA_OF_ASC_NODE = 82.5943
ARG_OF_PERICENTER = 337.9496
MEAN_ANOMALY   = 20.0390

EPHEMERIS_TYPE = 0
CLASSIFICATION_TYPE = U
NORAD_CAT_ID   = 25876
ELEMENT_SET_NO = 999
REV_AT_EPOCH   = 34529
BSTAR          = .19356236E-3
MEAN_MOTION_DOT = .96E-5
MEAN_MOTION_DDOT = 0

CCSDS_OMM_VERS = 2.0
CREATION_DATE  = 
ORIGINATOR     = 

OBJECT_NAME    = HELIOS 1B
OBJECT_ID      = 1999-064A
CENTER_NAME    = EARTH
REF_FRAME      = TEME
TIME_SYSTEM    = UTC
MEAN_ELEMENT_THEORY = SGP/SGP4

EPOCH          = 2025-11-04T10:51:08.575776
MEAN_MOTION    = 14.87038586
ECCENTRICITY   = .0002518
INCLINATION    = 98.1760
RA_OF_ASC_NODE = 201.9880
ARG_OF_PERICENTER = 95.0718
MEAN_ANOMALY   = 265.0785

EPHEMERIS_TYPE = 0
CLASSIFICATION_TYPE = U
NORAD_CAT_ID   = 25977
ELEMENT_SET_NO = 999
REV_AT_EPOCH   = 66664
BSTAR          = .25946E-3
MEAN_MOTION_DOT = .2268E-4
MEAN_MOTION_DDOT = 0

CCSDS_OMM_VERS = 2.0
CREATION_DATE  = 
ORIGINATOR     = 

OBJECT_NAME    = TERRA
OBJECT_ID      = 1999-068A
CENTER_NAME    = EARTH
REF_FRAME      = TEME
TIME_SYSTEM    = UTC
MEAN_ELEMENT_THEORY = SGP/SGP4

EPOCH          = 2025-11-04T11:02:38.275008
MEAN_MOTION    = 14.60883277
ECCENTRICITY   = .0001789
INCLINATION    = 97.9805
RA_OF_ASC_NODE = 1.5374
ARG_OF_PERICENTER = 184.0627
MEAN_ANOMALY   = 303.3321

EPHEMERIS_TYPE = 0
CLASSIFICATION_TYPE = U
NORAD_CAT_ID   = 25994
ELEMENT_SET_NO = 999
REV_AT_EPOCH   = 37679
BSTAR          = .1298E-3
MEAN_MOTION_DOT = .59E-5
MEAN_MOTION_DDOT = 0

CCSDS_OMM_VERS = 2.0
CREATION_DATE  = 
ORIGINATOR     = 

OBJECT_NAME    = SL-16 R/B
OBJECT_ID      = 2000-006B
CENTER_NAME    = EARTH
REF_FRAME      = TEME
TIME_SYSTEM    = UTC
MEAN_ELEMENT_THEORY = SGP/SGP4

EPOCH          = 2025-11-04T11:08:12.395040
MEAN_MOTION    = 14.15800098
ECCENTRICITY   = .0016317
INCLINATION    = 71.0042
RA_OF_ASC_NODE = 1.1384
ARG_OF_PERICENTER = 4.0545
MEAN_ANOMALY   = 356.0707

EPHEMERIS_TYPE = 0
CLASSIFICATION_TYPE = U
NORAD_CAT_ID   = 26070
ELEMENT_SET_NO = 999
REV_AT_EPOCH   = 33083
BSTAR          = .15159E-3
MEAN_MOTION_DOT = .251E-5
MEAN_MOTION_DDOT = 0

